[{"OBJECT_NAME":"ION SCV-008","OBJECT_ID":"2023-001AU","EPOCH":"2026-03-09T19:46:58.662912","MEAN_MOTION":15.2722664,"ECCENTRICITY":0.00151921,"INCLINATION":97.5676,"RA_OF_ASC_NODE":163.606,"ARG_OF_PERICENTER":8.542,"MEAN_ANOMALY":351.6074,"EPHEMERIS_TYPE":0,"CLASSIFICATION_TYPE":"U","NORAD_CAT_ID":55051,"ELEMENT_SET_NO":999,"REV_AT_EPOCH":17616,"BSTAR":0.00031422806,"MEAN_MOTION_DOT":8.336e-5,"MEAN_MOTION_DDOT":0},{"OBJECT_NAME":"STARLINK-35385","OBJECT_ID":"2025-224AA","EPOCH":"2026-03-09T05:15:28.942272","MEAN_MOTION":15.30183882,"ECCENTRICITY":9.069e-5,"INCLINATION":53.1605,"RA_OF_ASC_NODE":13.4269,"ARG_OF_PERICENTER":116.6777,"MEAN_ANOMALY":243.4317,"EPHEMERIS_TYPE":0,"CLASSIFICATION_TYPE":"U","NORAD_CAT_ID":65906,"ELEMENT_SET_NO":999,"REV_AT_EPOCH":2478,"BSTAR":0.0010647588,"MEAN_MOTION_DOT":0.00031293,"MEAN_MOTION_DDOT":0}]
